KAITUO 1B               
1 40912U 15049P   17278.91178495  .00002513  00000-0  12658-3 0  9990
2 40912  97.4524 284.9702 0015560 170.1961 277.5318 15.18001238113088
TIANWANG 1C (TW-1C)     
1 40926U 15051B   17278.79955655  .00013933  00000-0  30006-3 0  9990
2 40926  97.2200 317.5558 0012945 122.6742 327.6832 15.44631286113985
TIANWANG 1B (TW-1B)     
1 40927U 15051C   17278.95526020  .00013361  00000-0  29912-3 0  9998
2 40927  97.2284 317.6788 0012303 130.2869 350.1744 15.43497774113947
TIANWANG 1A (TW-1A)     
1 40928U 15051D   17278.87407497  .00006289  00000-0  17555-3 0  9997
2 40928  97.2175 312.6932 0013003 152.0033 333.7166 15.36995870113695
LAPAN-A2 (IO-86)        
1 40931U 15052B   17278.41284697  .00000835  00000-0  27314-4 0  9993
2 40931   5.9984 166.8209 0013758   1.4186 358.6012 14.76547061109286
LQSAT                   
1 40958U 15057A   17278.83924349  .00000115  00000-0  25583-4 0  9995
2 40958  97.9698 352.1761 0019663  73.1919 287.1423 14.72990553107411
CHUBUSAT-2              
1 41338U 16012B   17278.89948397  .00000646  00000-0  44099-4 0  9997
2 41338  31.0026 129.0829 0013735  75.2604 284.9553 14.99825133 89623
CHUBUSAT-3              
1 41339U 16012C   17278.81273136  .00000729  00000-0  50421-4 0  9990
2 41339  31.0096 128.6015 0013490  81.0139 279.2009 15.00024811 89595
OUFTI-1                 
1 41458U 16025C   17278.93011984  .00003018  00000-0  16391-3 0  9991
2 41458  98.1750 322.8219 0171465 279.4512  78.7369 15.03693754 79228
E-ST@R-II               
1 41459U 16025D   17278.89720200  .00001446  00000-0  81602-4 0  9996
2 41459  98.1753 322.7143 0171742 279.9901  78.1981 15.03489095 79205
AAUSAT 4                
1 41460U 16025E   17278.89054713  .00002731  00000-0  14882-3 0  9990
2 41460  98.1664 322.8863 0164435 277.8105  80.4443 15.04555623 79236
NUSAT 1 (LO-87)         
1 41557U 16033B   17278.87446554  .00002681  00000-0  10227-3 0  9995
2 41557  97.4572 358.3769 0013439 343.1648  16.9143 15.27486948 75323
BEESAT-4                
1 41619U 16040W   17278.72024119  .00002884  00000-0  13214-3 0  9999
2 41619  97.4512 339.9972 0013031  48.0638 312.1706 15.21217413 59393
PRATHAM                 
1 41783U 16059A   17278.90119070  .00000131  00000-0  34893-4 0  9992
2 41783  98.1553 339.0615 0033910 171.5560 188.6220 14.62865334 54787
ALSAT 1N                
1 41789U 16059G   17278.72963158  .00000201  00000-0  47377-4 0  9991
2 41789  98.1558 339.6068 0028642 164.9065 195.2987 14.64083743 54780
NAYIF-1 (EO-88)         
1 42017U 17008BX  17278.86675678  .00003074  00000-0  13191-3 0  9990
2 42017  97.4839 340.0670 0006544 179.1494 180.9755 15.23469899 35335
LILACSAT-1              
1 42725U 98067ME  17278.91240542  .00025127  00000-0  32768-3 0  9998
2 42725  51.6396 204.3553 0005661  17.8947 342.2244 15.58528653 20740
MAX VALIER SAT          
1 42778U 17036P   17278.71439007  .00002072  00000-0  97425-4 0  9993
2 42778  97.4404 337.2027 0011497 235.8942 124.1203 15.20651170 15824
